{
"type": "FeatureCollection",
"name": "flood_grid",
"crs": { "type": "name", "properties": { "name": "urn:ogc:def:crs:OGC:1.3:CRS84" } },
"features": [
{ "type": "Feature", "properties": { "grid_id": "G0001", "cell_area_m2": 14630.9 }, "geometry": { "type": "Polygon", "coordinates": [ [ [ 127.014048535565621, 37.523772656701283 ], [ 127.014049711841565, 37.523591308167674 ], [ 127.0131754, 37.5226498 ], [ 127.011524428240833, 37.52376224402412 ], [ 127.014048535565621, 37.523772656701283 ] ] ] } },
{ "type": "Feature", "properties": { "grid_id": "G0002", "cell_area_m2": 189170.7 }, "geometry": { "type": "Polygon", "coordinates": [ [ [ 127.014019300803, 37.528279307615811 ], [ 127.014048535565621, 37.523772656701283 ], [ 127.011524428240833, 37.52376224402412 ], [ 127.0083762, 37.5258834 ], [ 127.010771864134853, 37.528265899689693 ], [ 127.014019300803, 37.528279307615811 ] ] ] } },
{ "type": "Feature", "properties": { "grid_id": "G0003", "cell_area_m2": 50862.6 }, "geometry": { "type": "Polygon", "coordinates": [ [ [ 127.014019300803, 37.528279307615811 ], [ 127.010771864134853, 37.528265899689693 ], [ 127.012162900000021, 37.5296492 ], [ 127.013998568248866, 37.531474700132456 ], [ 127.014019300803, 37.528279307615811 ] ] ] } },
{ "type": "Feature", "properties": { "grid_id": "G0004", "cell_area_m2": 19527.5 }, "geometry": { "type": "Polygon", "coordinates": [ [ [ 127.019735760867746, 37.519289144847505 ], [ 127.019759987304042, 37.515508929150684 ], [ 127.0196065, 37.5160017 ], [ 127.01930990000001, 37.5170298 ], [ 127.018713785896239, 37.519284984789408 ], [ 127.019735760867746, 37.519289144847505 ] ] ] } },
{ "type": "Feature", "properties": { "grid_id": "G0005", "cell_area_m2": 91698.1 }, "geometry": { "type": "MultiPolygon", "coordinates": [ [ [ [ 127.019706872912408, 37.52379580297395 ], [ 127.019735760867746, 37.519289144847505 ], [ 127.018713785896239, 37.519284984789408 ], [ 127.0186625, 37.519479 ], [ 127.0180871, 37.5212326 ], [ 127.017739599999985, 37.5217732 ], [ 127.0173529, 37.5222075 ], [ 127.015952083408223, 37.523780473707482 ], [ 127.019706872912408, 37.52379580297395 ] ] ], [ [ [ 127.014048535565621, 37.523772656701283 ], [ 127.01421877092622, 37.523773357029825 ], [ 127.014049711841565, 37.523591308167674 ], [ 127.014048535565621, 37.523772656701283 ] ] ] ] } },
{ "type": "Feature", "properties": { "grid_id": "G0006", "cell_area_m2": 241906.4 }, "geometry": { "type": "Polygon", "coordinates": [ [ [ 127.014048535565621, 37.523772656701283 ], [ 127.014019300803, 37.528279307615811 ], [ 127.019677978522367, 37.528302457633885 ], [ 127.019706872912408, 37.52379580297395 ], [ 127.015952083408223, 37.523780473707482 ], [ 127.015106800000012, 37.5247296 ], [ 127.01421877092622, 37.523773357029825 ], [ 127.014048535565621, 37.523772656701283 ] ] ] } },
{ "type": "Feature", "properties": { "grid_id": "G0007", "cell_area_m2": 241435.2 }, "geometry": { "type": "Polygon", "coordinates": [ [ [ 127.019649077696116, 37.532809108827124 ], [ 127.019677978522367, 37.528302457633885 ], [ 127.014019300803, 37.528279307615811 ], [ 127.013998568248866, 37.531474700132456 ], [ 127.015322707565062, 37.532791431978431 ], [ 127.019649077696116, 37.532809108827124 ] ] ] } },
{ "type": "Feature", "properties": { "grid_id": "G0008", "cell_area_m2": 88869.3 }, "geometry": { "type": "Polygon", "coordinates": [ [ [ 127.019649077696116, 37.532809108827124 ], [ 127.015322707565062, 37.532791431978431 ], [ 127.017519600000014, 37.5349759 ], [ 127.019622637892297, 37.536931118379194 ], [ 127.019649077696116, 37.532809108827124 ] ] ] } },
{ "type": "Feature", "properties": { "grid_id": "G0009", "cell_area_m2": 30422.6 }, "geometry": { "type": "Polygon", "coordinates": [ [ [ 127.025479369183572, 37.50579201006969 ], [ 127.025502416909845, 37.502150416244021 ], [ 127.0244262, 37.504383 ], [ 127.023815627031382, 37.505785314854243 ], [ 127.025479369183572, 37.50579201006969 ] ] ] } },
{ "type": "Feature", "properties": { "grid_id": "G0010", "cell_area_m2": 119511.9 }, "geometry": { "type": "Polygon", "coordinates": [ [ [ 127.025450840594274, 37.510298682294653 ], [ 127.025479369183572, 37.50579201006969 ], [ 127.023815627031382, 37.505785314854243 ], [ 127.02324680000001, 37.507091699999989 ], [ 127.021643998155653, 37.510283326742666 ], [ 127.025450840594274, 37.510298682294653 ] ] ] } },
{ "type": "Feature", "properties": { "grid_id": "G0011", "cell_area_m2": 209961.0 }, "geometry": { "type": "Polygon", "coordinates": [ [ [ 127.025422305650537, 37.514805351053951 ], [ 127.025450840594274, 37.510298682294653 ], [ 127.021643998155653, 37.510283326742666 ], [ 127.0212566, 37.5110547 ], [ 127.020530300000019, 37.5126801 ], [ 127.0201834, 37.5138429 ], [ 127.020095699999985, 37.5144311 ], [ 127.019985975140258, 37.514783382956736 ], [ 127.025422305650537, 37.514805351053951 ] ] ] } },
{ "type": "Feature", "properties": { "grid_id": "G0012", "cell_area_m2": 249211.7 }, "geometry": { "type": "Polygon", "coordinates": [ [ [ 127.019735760867746, 37.519289144847505 ], [ 127.025393764350909, 37.519312016347463 ], [ 127.025422305650537, 37.514805351053951 ], [ 127.019985975140258, 37.514783382956736 ], [ 127.019759987304042, 37.515508929150684 ], [ 127.019735760867746, 37.519289144847505 ] ] ] } },
{ "type": "Feature", "properties": { "grid_id": "G0013", "cell_area_m2": 250000.0 }, "geometry": { "type": "Polygon", "coordinates": [ [ [ 127.019735760867746, 37.519289144847505 ], [ 127.019706872912408, 37.52379580297395 ], [ 127.025365216693899, 37.523818678175012 ], [ 127.025393764350909, 37.519312016347463 ], [ 127.019735760867746, 37.519289144847505 ] ] ] } },
{ "type": "Feature", "properties": { "grid_id": "G0014", "cell_area_m2": 250000.0 }, "geometry": { "type": "Polygon", "coordinates": [ [ [ 127.019706872912408, 37.52379580297395 ], [ 127.019677978522367, 37.528302457633885 ], [ 127.025336662677944, 37.52832533653649 ], [ 127.025365216693899, 37.523818678175012 ], [ 127.019706872912408, 37.52379580297395 ] ] ] } },
{ "type": "Feature", "properties": { "grid_id": "G0015", "cell_area_m2": 250000.0 }, "geometry": { "type": "Polygon", "coordinates": [ [ [ 127.019677978522367, 37.528302457633885 ], [ 127.019649077696116, 37.532809108827124 ], [ 127.025308102301608, 37.532831991431728 ], [ 127.025336662677944, 37.52832533653649 ], [ 127.019677978522367, 37.528302457633885 ] ] ] } },
{ "type": "Feature", "properties": { "grid_id": "G0016", "cell_area_m2": 249212.0 }, "geometry": { "type": "Polygon", "coordinates": [ [ [ 127.025279535563371, 37.537338642860583 ], [ 127.025308102301608, 37.532831991431728 ], [ 127.019649077696116, 37.532809108827124 ], [ 127.019622637892297, 37.536931118379194 ], [ 127.020038201717128, 37.537317456337163 ], [ 127.025279535563371, 37.537338642860583 ] ] ] } },
{ "type": "Feature", "properties": { "grid_id": "G0017", "cell_area_m2": 85256.2 }, "geometry": { "type": "Polygon", "coordinates": [ [ [ 127.025279535563371, 37.537338642860583 ], [ 127.020038201717128, 37.537317456337163 ], [ 127.021115, 37.53831850000001 ], [ 127.02391, 37.53974980000001 ], [ 127.025263277023441, 37.539903119257303 ], [ 127.025279535563371, 37.537338642860583 ] ] ] } },
{ "type": "Feature", "properties": { "grid_id": "G0018", "cell_area_m2": 11271.6 }, "geometry": { "type": "Polygon", "coordinates": [ [ [ 127.031220886472369, 37.49229455113926 ], [ 127.031234808716533, 37.490066849496607 ], [ 127.030189112803811, 37.492290452509387 ], [ 127.031220886472369, 37.49229455113926 ] ] ] } },
{ "type": "Feature", "properties": { "grid_id": "G0019", "cell_area_m2": 91736.0 }, "geometry": { "type": "Polygon", "coordinates": [ [ [ 127.031192716782741, 37.496801237414928 ], [ 127.031220886472369, 37.49229455113926 ], [ 127.030189112803811, 37.492290452509387 ], [ 127.028073455773793, 37.496788817605221 ], [ 127.031192716782741, 37.496801237414928 ] ] ] } },
{ "type": "Feature", "properties": { "grid_id": "G0020", "cell_area_m2": 184639.1 }, "geometry": { "type": "Polygon", "coordinates": [ [ [ 127.031164540818907, 37.501307920225841 ], [ 127.031192716782741, 37.496801237414928 ], [ 127.028073455773793, 37.496788817605221 ], [ 127.027537400000014, 37.4979285 ], [ 127.025918615875128, 37.50128698343827 ], [ 127.031164540818907, 37.501307920225841 ] ] ] } },
{ "type": "Feature", "properties": { "grid_id": "G0021", "cell_area_m2": 248257.8 }, "geometry": { "type": "Polygon", "coordinates": [ [ [ 127.025479369183572, 37.50579201006969 ], [ 127.031136358579317, 37.505814599571806 ], [ 127.031164540818907, 37.501307920225841 ], [ 127.025918615875128, 37.50128698343827 ], [ 127.025502416909845, 37.502150416244021 ], [ 127.025479369183572, 37.50579201006969 ] ] ] } },
{ "type": "Feature", "properties": { "grid_id": "G0022", "cell_area_m2": 250000.0 }, "geometry": { "type": "Polygon", "coordinates": [ [ [ 127.025479369183572, 37.50579201006969 ], [ 127.025450840594274, 37.510298682294653 ], [ 127.031108170062538, 37.510321275452725 ], [ 127.031136358579317, 37.505814599571806 ], [ 127.025479369183572, 37.50579201006969 ] ] ] } },
{ "type": "Feature", "properties": { "grid_id": "G0023", "cell_area_m2": 250000.0 }, "geometry": { "type": "Polygon", "coordinates": [ [ [ 127.025450840594274, 37.510298682294653 ], [ 127.025422305650537, 37.514805351053951 ], [ 127.031079975267104, 37.514827947868405 ], [ 127.031108170062538, 37.510321275452725 ], [ 127.025450840594274, 37.510298682294653 ] ] ] } },
{ "type": "Feature", "properties": { "grid_id": "G0024", "cell_area_m2": 250000.0 }, "geometry": { "type": "Polygon", "coordinates": [ [ [ 127.025422305650537, 37.514805351053951 ], [ 127.025393764350909, 37.519312016347463 ], [ 127.031051774191511, 37.519334616818739 ], [ 127.031079975267104, 37.514827947868405 ], [ 127.025422305650537, 37.514805351053951 ] ] ] } },
{ "type": "Feature", "properties": { "grid_id": "G0025", "cell_area_m2": 250000.0 }, "geometry": { "type": "Polygon", "coordinates": [ [ [ 127.025393764350909, 37.519312016347463 ], [ 127.025365216693899, 37.523818678175012 ], [ 127.031023566834264, 37.523841282303536 ], [ 127.031051774191511, 37.519334616818739 ], [ 127.025393764350909, 37.519312016347463 ] ] ] } },
{ "type": "Feature", "properties": { "grid_id": "G0026", "cell_area_m2": 250000.0 }, "geometry": { "type": "Polygon", "coordinates": [ [ [ 127.025365216693899, 37.523818678175012 ], [ 127.025336662677944, 37.52832533653649 ], [ 127.03099535319393, 37.528347944322697 ], [ 127.031023566834264, 37.523841282303536 ], [ 127.025365216693899, 37.523818678175012 ] ] ] } },
{ "type": "Feature", "properties": { "grid_id": "G0027", "cell_area_m2": 250000.0 }, "geometry": { "type": "Polygon", "coordinates": [ [ [ 127.025336662677944, 37.52832533653649 ], [ 127.025308102301608, 37.532831991431728 ], [ 127.030967133269002, 37.532854602876043 ], [ 127.03099535319393, 37.528347944322697 ], [ 127.025336662677944, 37.52832533653649 ] ] ] } },
{ "type": "Feature", "properties": { "grid_id": "G0028", "cell_area_m2": 250000.0 }, "geometry": { "type": "Polygon", "coordinates": [ [ [ 127.025308102301608, 37.532831991431728 ], [ 127.025279535563371, 37.537338642860583 ], [ 127.030938907057987, 37.537361257963461 ], [ 127.030967133269002, 37.532854602876043 ], [ 127.025308102301608, 37.532831991431728 ] ] ] } },
{ "type": "Feature", "properties": { "grid_id": "G0029", "cell_area_m2": 124151.3 }, "geometry": { "type": "Polygon", "coordinates": [ [ [ 127.030938907057987, 37.537361257963461 ], [ 127.025279535563371, 37.537338642860583 ], [ 127.025263277023441, 37.539903119257303 ], [ 127.0259481, 37.5399807 ], [ 127.029267100000013, 37.5394266 ], [ 127.030928675112435, 37.538994662798906 ], [ 127.030938907057987, 37.537361257963461 ] ] ] } },
{ "type": "Feature", "properties": { "grid_id": "G0030", "cell_area_m2": 119057.5 }, "geometry": { "type": "Polygon", "coordinates": [ [ [ 127.036904686023206, 37.487810165558805 ], [ 127.036923240016932, 37.484804350391585 ], [ 127.03399970000001, 37.4844069 ], [ 127.0339455, 37.4845174 ], [ 127.0335132, 37.4853992 ], [ 127.0333758, 37.4856794 ], [ 127.033252300000015, 37.4859313 ], [ 127.0331333, 37.4861741 ], [ 127.033022700000018, 37.4863998 ], [ 127.0327586, 37.4869383 ], [ 127.032751, 37.4869539 ], [ 127.032576400000011, 37.48731 ], [ 127.032342280304633, 37.48779219388657 ], [ 127.036904686023206, 37.487810165558805 ] ] ] } },
{ "type": "Feature", "properties": { "grid_id": "G0031", "cell_area_m2": 237794.2 }, "geometry": { "type": "Polygon", "coordinates": [ [ [ 127.031220886472369, 37.49229455113926 ], [ 127.036876862377611, 37.492316858909518 ], [ 127.036904686023206, 37.487810165558805 ], [ 127.032342280304633, 37.48779219388657 ], [ 127.0315908, 37.4893399 ], [ 127.0314772, 37.4895514 ], [ 127.031234808716533, 37.490066849496607 ], [ 127.031220886472369, 37.49229455113926 ] ] ] } },
{ "type": "Feature", "properties": { "grid_id": "G0032", "cell_area_m2": 250000.0 }, "geometry": { "type": "Polygon", "coordinates": [ [ [ 127.031220886472369, 37.49229455113926 ], [ 127.031192716782741, 37.496801237414928 ], [ 127.036849032534874, 37.496823548796009 ], [ 127.036876862377611, 37.492316858909518 ], [ 127.031220886472369, 37.49229455113926 ] ] ] } },
{ "type": "Feature", "properties": { "grid_id": "G0033", "cell_area_m2": 250000.0 }, "geometry": { "type": "Polygon", "coordinates": [ [ [ 127.031192716782741, 37.496801237414928 ], [ 127.031164540818907, 37.501307920225841 ], [ 127.036821196493591, 37.50133023521817 ], [ 127.036849032534874, 37.496823548796009 ], [ 127.031192716782741, 37.496801237414928 ] ] ] } },
{ "type": "Feature", "properties": { "grid_id": "G0034", "cell_area_m2": 250000.0 }, "geometry": { "type": "Polygon", "coordinates": [ [ [ 127.031164540818907, 37.501307920225841 ], [ 127.031136358579317, 37.505814599571806 ], [ 127.036793354252296, 37.505836918175831 ], [ 127.036821196493591, 37.50133023521817 ], [ 127.031164540818907, 37.501307920225841 ] ] ] } },
{ "type": "Feature", "properties": { "grid_id": "G0035", "cell_area_m2": 250000.0 }, "geometry": { "type": "Polygon", "coordinates": [ [ [ 127.031136358579317, 37.505814599571806 ], [ 127.031108170062538, 37.510321275452725 ], [ 127.036765505809512, 37.51034359766885 ], [ 127.036793354252296, 37.505836918175831 ], [ 127.031136358579317, 37.505814599571806 ] ] ] } },
{ "type": "Feature", "properties": { "grid_id": "G0036", "cell_area_m2": 250000.0 }, "geometry": { "type": "Polygon", "coordinates": [ [ [ 127.031108170062538, 37.510321275452725 ], [ 127.031079975267104, 37.514827947868405 ], [ 127.036737651163804, 37.514850273697071 ], [ 127.036765505809512, 37.51034359766885 ], [ 127.031108170062538, 37.510321275452725 ] ] ] } },
{ "type": "Feature", "properties": { "grid_id": "G0037", "cell_area_m2": 250000.0 }, "geometry": { "type": "Polygon", "coordinates": [ [ [ 127.031079975267104, 37.514827947868405 ], [ 127.031051774191511, 37.519334616818739 ], [ 127.036709790313722, 37.51935694626038 ], [ 127.036737651163804, 37.514850273697071 ], [ 127.031079975267104, 37.514827947868405 ] ] ] } },
{ "type": "Feature", "properties": { "grid_id": "G0038", "cell_area_m2": 250000.0 }, "geometry": { "type": "Polygon", "coordinates": [ [ [ 127.031051774191511, 37.519334616818739 ], [ 127.031023566834264, 37.523841282303536 ], [ 127.03668192325776, 37.523863615358579 ], [ 127.036709790313722, 37.51935694626038 ], [ 127.031051774191511, 37.519334616818739 ] ] ] } },
{ "type": "Feature", "properties": { "grid_id": "G0039", "cell_area_m2": 250000.0 }, "geometry": { "type": "Polygon", "coordinates": [ [ [ 127.031023566834264, 37.523841282303536 ], [ 127.03099535319393, 37.528347944322697 ], [ 127.036654049994496, 37.52837028099156 ], [ 127.03668192325776, 37.523863615358579 ], [ 127.031023566834264, 37.523841282303536 ] ] ] } },
{ "type": "Feature", "properties": { "grid_id": "G0040", "cell_area_m2": 250000.0 }, "geometry": { "type": "Polygon", "coordinates": [ [ [ 127.03099535319393, 37.528347944322697 ], [ 127.030967133269002, 37.532854602876043 ], [ 127.036626170522467, 37.532876943159174 ], [ 127.036654049994496, 37.52837028099156 ], [ 127.03099535319393, 37.528347944322697 ] ] ] } },
{ "type": "Feature", "properties": { "grid_id": "G0041", "cell_area_m2": 250000.0 }, "geometry": { "type": "Polygon", "coordinates": [ [ [ 127.030967133269002, 37.532854602876043 ], [ 127.030938907057987, 37.537361257963461 ], [ 127.036598284840196, 37.537383601861258 ], [ 127.036626170522467, 37.532876943159174 ], [ 127.030967133269002, 37.532854602876043 ] ] ] } },
{ "type": "Feature", "properties": { "grid_id": "G0042", "cell_area_m2": 46864.1 }, "geometry": { "type": "Polygon", "coordinates": [ [ [ 127.036598284840196, 37.537383601861258 ], [ 127.030938907057987, 37.537361257963461 ], [ 127.030928675112435, 37.538994662798906 ], [ 127.032819100000012, 37.5385032 ], [ 127.036598187931233, 37.537399261747041 ], [ 127.036598284840196, 37.537383601861258 ] ] ] } },
{ "type": "Feature", "properties": { "grid_id": "G0043", "cell_area_m2": 454.4 }, "geometry": { "type": "Polygon", "coordinates": [ [ [ 127.042587806105843, 37.483325498614036 ], [ 127.042590663090735, 37.482856859007853 ], [ 127.042390091375708, 37.483324732995548 ], [ 127.042587806105843, 37.483325498614036 ] ] ] } },
{ "type": "Feature", "properties": { "grid_id": "G0044", "cell_area_m2": 160049.9 }, "geometry": { "type": "Polygon", "coordinates": [ [ [ 127.036904686023206, 37.487810165558805 ], [ 127.042560328352891, 37.487832198994965 ], [ 127.042587806105843, 37.483325498614036 ], [ 127.042390091375708, 37.483324732995548 ], [ 127.0414897, 37.485425 ], [ 127.036923240016932, 37.484804350391585 ], [ 127.036904686023206, 37.487810165558805 ] ] ] } },
{ "type": "Feature", "properties": { "grid_id": "G0045", "cell_area_m2": 250000.0 }, "geometry": { "type": "Polygon", "coordinates": [ [ [ 127.036904686023206, 37.487810165558805 ], [ 127.036876862377611, 37.492316858909518 ], [ 127.042532844479936, 37.492338895912269 ], [ 127.042560328352891, 37.487832198994965 ], [ 127.036904686023206, 37.487810165558805 ] ] ] } },
{ "type": "Feature", "properties": { "grid_id": "G0046", "cell_area_m2": 250000.0 }, "geometry": { "type": "Polygon", "coordinates": [ [ [ 127.036876862377611, 37.492316858909518 ], [ 127.036849032534874, 37.496823548796009 ], [ 127.042505354485527, 37.496845589365769 ], [ 127.042532844479936, 37.492338895912269 ], [ 127.036876862377611, 37.492316858909518 ] ] ] } },
{ "type": "Feature", "properties": { "grid_id": "G0047", "cell_area_m2": 250000.0 }, "geometry": { "type": "Polygon", "coordinates": [ [ [ 127.036849032534874, 37.496823548796009 ], [ 127.036821196493591, 37.50133023521817 ], [ 127.042477858368287, 37.501352279355345 ], [ 127.042505354485527, 37.496845589365769 ], [ 127.036849032534874, 37.496823548796009 ] ] ] } },
{ "type": "Feature", "properties": { "grid_id": "G0048", "cell_area_m2": 250000.0 }, "geometry": { "type": "Polygon", "coordinates": [ [ [ 127.036821196493591, 37.50133023521817 ], [ 127.036793354252296, 37.505836918175831 ], [ 127.042450356126707, 37.505858965880847 ], [ 127.042477858368287, 37.501352279355345 ], [ 127.036821196493591, 37.50133023521817 ] ] ] } },
{ "type": "Feature", "properties": { "grid_id": "G0049", "cell_area_m2": 250000.0 }, "geometry": { "type": "Polygon", "coordinates": [ [ [ 127.036793354252296, 37.505836918175831 ], [ 127.036765505809512, 37.51034359766885 ], [ 127.042422847759411, 37.510365648942148 ], [ 127.042450356126707, 37.505858965880847 ], [ 127.036793354252296, 37.505836918175831 ] ] ] } },
{ "type": "Feature", "properties": { "grid_id": "G0050", "cell_area_m2": 250000.0 }, "geometry": { "type": "Polygon", "coordinates": [ [ [ 127.036765505809512, 37.51034359766885 ], [ 127.036737651163804, 37.514850273697071 ], [ 127.042395333264892, 37.514872328539056 ], [ 127.042422847759411, 37.510365648942148 ], [ 127.036765505809512, 37.51034359766885 ] ] ] } },
{ "type": "Feature", "properties": { "grid_id": "G0051", "cell_area_m2": 250000.0 }, "geometry": { "type": "Polygon", "coordinates": [ [ [ 127.036737651163804, 37.514850273697071 ], [ 127.036709790313722, 37.51935694626038 ], [ 127.042367812641771, 37.519379004671471 ], [ 127.042395333264892, 37.514872328539056 ], [ 127.036737651163804, 37.514850273697071 ] ] ] } },
{ "type": "Feature", "properties": { "grid_id": "G0052", "cell_area_m2": 250000.0 }, "geometry": { "type": "Polygon", "coordinates": [ [ [ 127.036709790313722, 37.51935694626038 ], [ 127.03668192325776, 37.523863615358579 ], [ 127.042340285888557, 37.523885677339216 ], [ 127.042367812641771, 37.519379004671471 ], [ 127.036709790313722, 37.51935694626038 ] ] ] } },
{ "type": "Feature", "properties": { "grid_id": "G0053", "cell_area_m2": 250000.0 }, "geometry": { "type": "Polygon", "coordinates": [ [ [ 127.03668192325776, 37.523863615358579 ], [ 127.036654049994496, 37.52837028099156 ], [ 127.042312753003841, 37.528392346542169 ], [ 127.042340285888557, 37.523885677339216 ], [ 127.03668192325776, 37.523863615358579 ] ] ] } },
{ "type": "Feature", "properties": { "grid_id": "G0054", "cell_area_m2": 250000.0 }, "geometry": { "type": "Polygon", "coordinates": [ [ [ 127.036654049994496, 37.52837028099156 ], [ 127.036626170522467, 37.532876943159174 ], [ 127.042285213986148, 37.532899012280154 ], [ 127.042312753003841, 37.528392346542169 ], [ 127.036654049994496, 37.52837028099156 ] ] ] } },
{ "type": "Feature", "properties": { "grid_id": "G0055", "cell_area_m2": 204162.2 }, "geometry": { "type": "Polygon", "coordinates": [ [ [ 127.042285213986148, 37.532899012280154 ], [ 127.036626170522467, 37.532876943159174 ], [ 127.036598284840196, 37.537383601861258 ], [ 127.036651083111195, 37.537383809038118 ], [ 127.0405637, 37.5362407 ], [ 127.042267939398414, 37.535725425300775 ], [ 127.042285213986148, 37.532899012280154 ] ] ] } },
{ "type": "Feature", "properties": { "grid_id": "G0056", "cell_area_m2": 4.1 }, "geometry": { "type": "Polygon", "coordinates": [ [ [ 127.036598284840196, 37.537383601861258 ], [ 127.036598187931233, 37.537399261747041 ], [ 127.036651083111195, 37.537383809038118 ], [ 127.036598284840196, 37.537383601861258 ] ] ] } },
{ "type": "Feature", "properties": { "grid_id": "G0057", "cell_area_m2": 519.6 }, "geometry": { "type": "Polygon", "coordinates": [ [ [ 127.048297372838732, 37.474333839607638 ], [ 127.04829930858368, 37.474012196291525 ], [ 127.047968055021371, 37.474332580213968 ], [ 127.048297372838732, 37.474333839607638 ] ] ] } },
{ "type": "Feature", "properties": { "grid_id": "G0058", "cell_area_m2": 108223.4 }, "geometry": { "type": "Polygon", "coordinates": [ [ [ 127.04827024686864, 37.478840550436907 ], [ 127.048297372838732, 37.474333839607638 ], [ 127.047968055021371, 37.474332580213968 ], [ 127.0450736, 37.4771319 ], [ 127.044328484123881, 37.478825414356074 ], [ 127.04827024686864, 37.478840550436907 ] ] ] } },
{ "type": "Feature", "properties": { "grid_id": "G0059", "cell_area_m2": 216219.6 }, "geometry": { "type": "Polygon", "coordinates": [ [ [ 127.042587806105843, 37.483325498614036 ], [ 127.048243114857044, 37.483347257803246 ], [ 127.04827024686864, 37.478840550436907 ], [ 127.044328484123881, 37.478825414356074 ], [ 127.0439526, 37.4796797 ], [ 127.042590663090735, 37.482856859007853 ], [ 127.042587806105843, 37.483325498614036 ] ] ] } },
{ "type": "Feature", "properties": { "grid_id": "G0060", "cell_area_m2": 250000.0 }, "geometry": { "type": "Polygon", "coordinates": [ [ [ 127.042587806105843, 37.483325498614036 ], [ 127.042560328352891, 37.487832198994965 ], [ 127.048215976802538, 37.487853961706513 ], [ 127.048243114857044, 37.483347257803246 ], [ 127.042587806105843, 37.483325498614036 ] ] ] } },
{ "type": "Feature", "properties": { "grid_id": "G0061", "cell_area_m2": 250000.0 }, "geometry": { "type": "Polygon", "coordinates": [ [ [ 127.042560328352891, 37.487832198994965 ], [ 127.042532844479936, 37.492338895912269 ], [ 127.048188832703687, 37.492360662146574 ], [ 127.048215976802538, 37.487853961706513 ], [ 127.042560328352891, 37.487832198994965 ] ] ] } },
{ "type": "Feature", "properties": { "grid_id": "G0062", "cell_area_m2": 250000.0 }, "geometry": { "type": "Polygon", "coordinates": [ [ [ 127.042532844479936, 37.492338895912269 ], [ 127.042505354485527, 37.496845589365769 ], [ 127.048161682559083, 37.496867359123243 ], [ 127.048188832703687, 37.492360662146574 ], [ 127.042532844479936, 37.492338895912269 ] ] ] } },
{ "type": "Feature", "properties": { "grid_id": "G0063", "cell_area_m2": 250000.0 }, "geometry": { "type": "Polygon", "coordinates": [ [ [ 127.042505354485527, 37.496845589365769 ], [ 127.042477858368287, 37.501352279355345 ], [ 127.048134526367278, 37.501374052636422 ], [ 127.048161682559083, 37.496867359123243 ], [ 127.042505354485527, 37.496845589365769 ] ] ] } },
{ "type": "Feature", "properties": { "grid_id": "G0064", "cell_area_m2": 250000.0 }, "geometry": { "type": "Polygon", "coordinates": [ [ [ 127.042477858368287, 37.501352279355345 ], [ 127.042450356126707, 37.505858965880847 ], [ 127.048107364126906, 37.505880742685946 ], [ 127.048134526367278, 37.501374052636422 ], [ 127.042477858368287, 37.501352279355345 ] ] ] } },
{ "type": "Feature", "properties": { "grid_id": "G0065", "cell_area_m2": 250000.0 }, "geometry": { "type": "Polygon", "coordinates": [ [ [ 127.042450356126707, 37.505858965880847 ], [ 127.042422847759411, 37.510365648942148 ], [ 127.048080195836505, 37.510387429271667 ], [ 127.048107364126906, 37.505880742685946 ], [ 127.042450356126707, 37.505858965880847 ] ] ] } },
{ "type": "Feature", "properties": { "grid_id": "G0066", "cell_area_m2": 250000.0 }, "geometry": { "type": "Polygon", "coordinates": [ [ [ 127.042422847759411, 37.510365648942148 ], [ 127.042395333264892, 37.514872328539056 ], [ 127.048053021494638, 37.514894112393435 ], [ 127.048080195836505, 37.510387429271667 ], [ 127.042422847759411, 37.510365648942148 ] ] ] } },
{ "type": "Feature", "properties": { "grid_id": "G0067", "cell_area_m2": 250000.0 }, "geometry": { "type": "Polygon", "coordinates": [ [ [ 127.042395333264892, 37.514872328539056 ], [ 127.042367812641771, 37.519379004671471 ], [ 127.048025841099914, 37.519400792051108 ], [ 127.048053021494638, 37.514894112393435 ], [ 127.042395333264892, 37.514872328539056 ] ] ] } },
{ "type": "Feature", "properties": { "grid_id": "G0068", "cell_area_m2": 250000.0 }, "geometry": { "type": "Polygon", "coordinates": [ [ [ 127.042367812641771, 37.519379004671471 ], [ 127.042340285888557, 37.523885677339216 ], [ 127.047998654650883, 37.523907468244531 ], [ 127.048025841099914, 37.519400792051108 ], [ 127.042367812641771, 37.519379004671471 ] ] ] } },
{ "type": "Feature", "properties": { "grid_id": "G0069", "cell_area_m2": 250000.0 }, "geometry": { "type": "Polygon", "coordinates": [ [ [ 127.042340285888557, 37.523885677339216 ], [ 127.042312753003841, 37.528392346542169 ], [ 127.047971462146151, 37.528414140973574 ], [ 127.047998654650883, 37.523907468244531 ], [ 127.042340285888557, 37.523885677339216 ] ] ] } },
{ "type": "Feature", "properties": { "grid_id": "G0070", "cell_area_m2": 250000.0 }, "geometry": { "type": "Polygon", "coordinates": [ [ [ 127.042312753003841, 37.528392346542169 ], [ 127.042285213986148, 37.532899012280154 ], [ 127.047944263584242, 37.532920810238082 ], [ 127.047971462146151, 37.528414140973574 ], [ 127.042312753003841, 37.528392346542169 ] ] ] } },
{ "type": "Feature", "properties": { "grid_id": "G0071", "cell_area_m2": 108018.9 }, "geometry": { "type": "Polygon", "coordinates": [ [ [ 127.047944263584242, 37.532920810238082 ], [ 127.042285213986148, 37.532899012280154 ], [ 127.042267939398414, 37.535725425300775 ], [ 127.0461251, 37.5345591 ], [ 127.047938101061234, 37.533941770347603 ], [ 127.047944263584242, 37.532920810238082 ] ] ] } },
{ "type": "Feature", "properties": { "grid_id": "G0072", "cell_area_m2": 65061.1 }, "geometry": { "type": "MultiPolygon", "coordinates": [ [ [ [ 127.053978788917007, 37.469848603389998 ], [ 127.053988924875313, 37.468142622804756 ], [ 127.0526434, 37.4677506 ], [ 127.0508192, 37.466867 ], [ 127.051018, 37.4674723 ], [ 127.0511585, 37.4685362 ], [ 127.0510741, 37.4693406 ], [ 127.050357575766782, 37.469834879217785 ], [ 127.053978788917007, 37.469848603389998 ] ] ], [ [ [ 127.048985974702163, 37.469829651956999 ], [ 127.048783699999987, 37.4698201 ], [ 127.048795651615919, 37.469828925365448 ], [ 127.048985974702163, 37.469829651956999 ] ] ] ] } },
{ "type": "Feature", "properties": { "grid_id": "G0073", "cell_area_m2": 191496.4 }, "geometry": { "type": "Polygon", "coordinates": [ [ [ 127.048297372838732, 37.474333839607638 ], [ 127.053952008460016, 37.474355321159329 ], [ 127.053978788917007, 37.469848603389998 ], [ 127.050357575766782, 37.469834879217785 ], [ 127.05027680000002, 37.4698906 ], [ 127.048985974702163, 37.469829651956999 ], [ 127.048795651615919, 37.469828925365448 ], [ 127.0509668, 37.4714321 ], [ 127.04829930858368, 37.474012196291525 ], [ 127.048297372838732, 37.474333839607638 ] ] ] } },
{ "type": "Feature", "properties": { "grid_id": "G0074", "cell_area_m2": 250000.0 }, "geometry": { "type": "Polygon", "coordinates": [ [ [ 127.048297372838732, 37.474333839607638 ], [ 127.04827024686864, 37.478840550436907 ], [ 127.053925222038529, 37.478862035466292 ], [ 127.053952008460016, 37.474355321159329 ], [ 127.048297372838732, 37.474333839607638 ] ] ] } },
{ "type": "Feature", "properties": { "grid_id": "G0075", "cell_area_m2": 250000.0 }, "geometry": { "type": "Polygon", "coordinates": [ [ [ 127.04827024686864, 37.478840550436907 ], [ 127.048243114857044, 37.483347257803246 ], [ 127.053898429651156, 37.483368746310759 ], [ 127.053925222038529, 37.478862035466292 ], [ 127.04827024686864, 37.478840550436907 ] ] ] } },
{ "type": "Feature", "properties": { "grid_id": "G0076", "cell_area_m2": 250000.0 }, "geometry": { "type": "Polygon", "coordinates": [ [ [ 127.048243114857044, 37.483347257803246 ], [ 127.048215976802538, 37.487853961706513 ], [ 127.053871631296516, 37.487875453692546 ], [ 127.053898429651156, 37.483368746310759 ], [ 127.048243114857044, 37.483347257803246 ] ] ] } },
{ "type": "Feature", "properties": { "grid_id": "G0077", "cell_area_m2": 250000.0 }, "geometry": { "type": "Polygon", "coordinates": [ [ [ 127.048215976802538, 37.487853961706513 ], [ 127.048188832703687, 37.492360662146574 ], [ 127.05384482697319, 37.492382157611544 ], [ 127.053871631296516, 37.487875453692546 ], [ 127.048215976802538, 37.487853961706513 ] ] ] } },
{ "type": "Feature", "properties": { "grid_id": "G0078", "cell_area_m2": 250000.0 }, "geometry": { "type": "Polygon", "coordinates": [ [ [ 127.048188832703687, 37.492360662146574 ], [ 127.048161682559083, 37.496867359123243 ], [ 127.053818016679784, 37.496888858067571 ], [ 127.05384482697319, 37.492382157611544 ], [ 127.048188832703687, 37.492360662146574 ] ] ] } },
{ "type": "Feature", "properties": { "grid_id": "G0079", "cell_area_m2": 250000.0 }, "geometry": { "type": "Polygon", "coordinates": [ [ [ 127.048161682559083, 37.496867359123243 ], [ 127.048134526367278, 37.501374052636422 ], [ 127.053791200414906, 37.501395555060512 ], [ 127.053818016679784, 37.496888858067571 ], [ 127.048161682559083, 37.496867359123243 ] ] ] } },
{ "type": "Feature", "properties": { "grid_id": "G0080", "cell_area_m2": 250000.0 }, "geometry": { "type": "Polygon", "coordinates": [ [ [ 127.048134526367278, 37.501374052636422 ], [ 127.048107364126906, 37.505880742685946 ], [ 127.053764378177121, 37.505902248590218 ], [ 127.053791200414906, 37.501395555060512 ], [ 127.048134526367278, 37.501374052636422 ] ] ] } },
{ "type": "Feature", "properties": { "grid_id": "G0081", "cell_area_m2": 250000.0 }, "geometry": { "type": "Polygon", "coordinates": [ [ [ 127.048107364126906, 37.505880742685946 ], [ 127.048080195836505, 37.510387429271667 ], [ 127.053737549965035, 37.510408938656518 ], [ 127.053764378177121, 37.505902248590218 ], [ 127.048107364126906, 37.505880742685946 ] ] ] } },
{ "type": "Feature", "properties": { "grid_id": "G0082", "cell_area_m2": 250000.0 }, "geometry": { "type": "Polygon", "coordinates": [ [ [ 127.048080195836505, 37.510387429271667 ], [ 127.048053021494638, 37.514894112393435 ], [ 127.053710715777243, 37.514915625259285 ], [ 127.053737549965035, 37.510408938656518 ], [ 127.048080195836505, 37.510387429271667 ] ] ] } },
{ "type": "Feature", "properties": { "grid_id": "G0083", "cell_area_m2": 250000.0 }, "geometry": { "type": "Polygon", "coordinates": [ [ [ 127.048053021494638, 37.514894112393435 ], [ 127.048025841099914, 37.519400792051108 ], [ 127.05368387561235, 37.519422308398376 ], [ 127.053710715777243, 37.514915625259285 ], [ 127.048053021494638, 37.514894112393435 ] ] ] } },
{ "type": "Feature", "properties": { "grid_id": "G0084", "cell_area_m2": 250000.0 }, "geometry": { "type": "Polygon", "coordinates": [ [ [ 127.048025841099914, 37.519400792051108 ], [ 127.047998654650883, 37.523907468244531 ], [ 127.053657029468923, 37.523928988073621 ], [ 127.05368387561235, 37.519422308398376 ], [ 127.048025841099914, 37.519400792051108 ] ] ] } },
{ "type": "Feature", "properties": { "grid_id": "G0085", "cell_area_m2": 250000.0 }, "geometry": { "type": "Polygon", "coordinates": [ [ [ 127.047998654650883, 37.523907468244531 ], [ 127.047971462146151, 37.528414140973574 ], [ 127.053630177345582, 37.528435664284906 ], [ 127.053657029468923, 37.523928988073621 ], [ 127.047998654650883, 37.523907468244531 ] ] ] } },
{ "type": "Feature", "properties": { "grid_id": "G0086", "cell_area_m2": 236368.9 }, "geometry": { "type": "Polygon", "coordinates": [ [ [ 127.053630177345582, 37.528435664284906 ], [ 127.047971462146151, 37.528414140973574 ], [ 127.047944263584242, 37.532920810238082 ], [ 127.050903168598012, 37.532932099607628 ], [ 127.0520349, 37.5325467 ], [ 127.053609879532488, 37.531841641701348 ], [ 127.053630177345582, 37.528435664284906 ] ] ] } },
{ "type": "Feature", "properties": { "grid_id": "G0087", "cell_area_m2": 14806.3 }, "geometry": { "type": "Polygon", "coordinates": [ [ [ 127.047944263584242, 37.532920810238082 ], [ 127.047938101061234, 37.533941770347603 ], [ 127.04927450000001, 37.5334867 ], [ 127.050903168598012, 37.532932099607628 ], [ 127.047944263584242, 37.532920810238082 ] ] ] } },
{ "type": "Feature", "properties": { "grid_id": "G0088", "cell_area_m2": 71307.5 }, "geometry": { "type": "Polygon", "coordinates": [ [ [ 127.053978788917007, 37.469848603389998 ], [ 127.059633091028346, 37.469869810913217 ], [ 127.059637365731803, 37.469141116457031 ], [ 127.0595058, 37.4691588 ], [ 127.0573518, 37.4683728 ], [ 127.055518, 37.4685881 ], [ 127.053988924875313, 37.468142622804756 ], [ 127.053978788917007, 37.469848603389998 ] ] ] } },
{ "type": "Feature", "properties": { "grid_id": "G0089", "cell_area_m2": 250000.0 }, "geometry": { "type": "Polygon", "coordinates": [ [ [ 127.053978788917007, 37.469848603389998 ], [ 127.053952008460016, 37.474355321159329 ], [ 127.059606650045737, 37.474376532116054 ], [ 127.059633091028346, 37.469869810913217 ], [ 127.053978788917007, 37.469848603389998 ] ] ] } },
{ "type": "Feature", "properties": { "grid_id": "G0090", "cell_area_m2": 250000.0 }, "geometry": { "type": "Polygon", "coordinates": [ [ [ 127.053952008460016, 37.474355321159329 ], [ 127.053925222038529, 37.478862035466292 ], [ 127.059580203174292, 37.478883249856914 ], [ 127.059606650045737, 37.474376532116054 ], [ 127.053952008460016, 37.474355321159329 ] ] ] } },
{ "type": "Feature", "properties": { "grid_id": "G0091", "cell_area_m2": 250000.0 }, "geometry": { "type": "Polygon", "coordinates": [ [ [ 127.053925222038529, 37.478862035466292 ], [ 127.053898429651156, 37.483368746310759 ], [ 127.059553750412562, 37.483389964135675 ], [ 127.059580203174292, 37.478883249856914 ], [ 127.053925222038529, 37.478862035466292 ] ] ] } },
{ "type": "Feature", "properties": { "grid_id": "G0092", "cell_area_m2": 250000.0 }, "geometry": { "type": "Polygon", "coordinates": [ [ [ 127.053898429651156, 37.483368746310759 ], [ 127.053871631296516, 37.487875453692546 ], [ 127.059527291759196, 37.487896674952182 ], [ 127.059553750412562, 37.483389964135675 ], [ 127.053898429651156, 37.483368746310759 ] ] ] } },
{ "type": "Feature", "properties": { "grid_id": "G0093", "cell_area_m2": 250000.0 }, "geometry": { "type": "Polygon", "coordinates": [ [ [ 127.053871631296516, 37.487875453692546 ], [ 127.05384482697319, 37.492382157611544 ], [ 127.059500827212801, 37.492403382306307 ], [ 127.059527291759196, 37.487896674952182 ], [ 127.053871631296516, 37.487875453692546 ] ] ] } },
{ "type": "Feature", "properties": { "grid_id": "G0094", "cell_area_m2": 250000.0 }, "geometry": { "type": "Polygon", "coordinates": [ [ [ 127.05384482697319, 37.492382157611544 ], [ 127.053818016679784, 37.496888858067571 ], [ 127.059474356772, 37.496910086197857 ], [ 127.059500827212801, 37.492403382306307 ], [ 127.05384482697319, 37.492382157611544 ] ] ] } },
{ "type": "Feature", "properties": { "grid_id": "G0095", "cell_area_m2": 250000.0 }, "geometry": { "type": "Polygon", "coordinates": [ [ [ 127.053818016679784, 37.496888858067571 ], [ 127.053791200414906, 37.501395555060512 ], [ 127.059447880435414, 37.501416786626734 ], [ 127.059474356772, 37.496910086197857 ], [ 127.053818016679784, 37.496888858067571 ] ] ] } },
{ "type": "Feature", "properties": { "grid_id": "G0096", "cell_area_m2": 250000.0 }, "geometry": { "type": "Polygon", "coordinates": [ [ [ 127.053791200414906, 37.501395555060512 ], [ 127.053764378177121, 37.505902248590218 ], [ 127.059421398201621, 37.50592348359276 ], [ 127.059447880435414, 37.501416786626734 ], [ 127.053791200414906, 37.501395555060512 ] ] ] } },
{ "type": "Feature", "properties": { "grid_id": "G0097", "cell_area_m2": 250000.0 }, "geometry": { "type": "Polygon", "coordinates": [ [ [ 127.053764378177121, 37.505902248590218 ], [ 127.053737549965035, 37.510408938656518 ], [ 127.059394910069273, 37.510430177095827 ], [ 127.059421398201621, 37.50592348359276 ], [ 127.053764378177121, 37.505902248590218 ] ] ] } },
{ "type": "Feature", "properties": { "grid_id": "G0098", "cell_area_m2": 250000.0 }, "geometry": { "type": "Polygon", "coordinates": [ [ [ 127.053737549965035, 37.510408938656518 ], [ 127.053710715777243, 37.514915625259285 ], [ 127.059368416036932, 37.514936867135738 ], [ 127.059394910069273, 37.510430177095827 ], [ 127.053737549965035, 37.510408938656518 ] ] ] } },
{ "type": "Feature", "properties": { "grid_id": "G0099", "cell_area_m2": 250000.0 }, "geometry": { "type": "Polygon", "coordinates": [ [ [ 127.053710715777243, 37.514915625259285 ], [ 127.05368387561235, 37.519422308398376 ], [ 127.059341916103278, 37.519443553712385 ], [ 127.059368416036932, 37.514936867135738 ], [ 127.053710715777243, 37.514915625259285 ] ] ] } },
{ "type": "Feature", "properties": { "grid_id": "G0100", "cell_area_m2": 250000.0 }, "geometry": { "type": "Polygon", "coordinates": [ [ [ 127.05368387561235, 37.519422308398376 ], [ 127.053657029468923, 37.523928988073621 ], [ 127.05931541026689, 37.523950236825598 ], [ 127.059341916103278, 37.519443553712385 ], [ 127.05368387561235, 37.519422308398376 ] ] ] } },
{ "type": "Feature", "properties": { "grid_id": "G0101", "cell_area_m2": 250000.0 }, "geometry": { "type": "Polygon", "coordinates": [ [ [ 127.053657029468923, 37.523928988073621 ], [ 127.053630177345582, 37.528435664284906 ], [ 127.059288898526361, 37.528456916475264 ], [ 127.05931541026689, 37.523950236825598 ], [ 127.053657029468923, 37.523928988073621 ] ] ] } },
{ "type": "Feature", "properties": { "grid_id": "G0102", "cell_area_m2": 111056.0 }, "geometry": { "type": "Polygon", "coordinates": [ [ [ 127.059288898526361, 37.528456916475264 ], [ 127.053630177345582, 37.528435664284906 ], [ 127.053609879532488, 37.531841641701348 ], [ 127.055645100000021, 37.5309305 ], [ 127.057204, 37.5301151 ], [ 127.059286672368614, 37.528835290903999 ], [ 127.059288898526361, 37.528456916475264 ] ] ] } },
{ "type": "Feature", "properties": { "grid_id": "G0103", "cell_area_m2": 43349.6 }, "geometry": { "type": "Polygon", "coordinates": [ [ [ 127.059633091028346, 37.469869810913217 ], [ 127.065287399027142, 37.469890747884399 ], [ 127.065289295708411, 37.469563224854049 ], [ 127.0652152, 37.4695591 ], [ 127.063698800000012, 37.4689653 ], [ 127.062655299999989, 37.4691168 ], [ 127.0619354, 37.4690062 ], [ 127.0612184, 37.4689286 ], [ 127.059637365731803, 37.469141116457031 ], [ 127.059633091028346, 37.469869810913217 ] ] ] } },
{ "type": "Feature", "properties": { "grid_id": "G0104", "cell_area_m2": 250000.0 }, "geometry": { "type": "Polygon", "coordinates": [ [ [ 127.059633091028346, 37.469869810913217 ], [ 127.059606650045737, 37.474376532116054 ], [ 127.065261297520351, 37.474397472476923 ], [ 127.065287399027142, 37.469890747884399 ], [ 127.059633091028346, 37.469869810913217 ] ] ] } },
{ "type": "Feature", "properties": { "grid_id": "G0105", "cell_area_m2": 250000.0 }, "geometry": { "type": "Polygon", "coordinates": [ [ [ 127.059606650045737, 37.474376532116054 ], [ 127.059580203174292, 37.478883249856914 ], [ 127.065235190200298, 37.478904193607875 ], [ 127.065261297520351, 37.474397472476923 ], [ 127.059606650045737, 37.474376532116054 ] ] ] } },
{ "type": "Feature", "properties": { "grid_id": "G0106", "cell_area_m2": 250000.0 }, "geometry": { "type": "Polygon", "coordinates": [ [ [ 127.059580203174292, 37.478883249856914 ], [ 127.059553750412562, 37.483389964135675 ], [ 127.065209077065603, 37.48341091127714 ], [ 127.065235190200298, 37.478904193607875 ], [ 127.059580203174292, 37.478883249856914 ] ] ] } },
{ "type": "Feature", "properties": { "grid_id": "G0107", "cell_area_m2": 250000.0 }, "geometry": { "type": "Polygon", "coordinates": [ [ [ 127.059553750412562, 37.483389964135675 ], [ 127.059527291759196, 37.487896674952182 ], [ 127.065182958114889, 37.487917625484549 ], [ 127.065209077065603, 37.48341091127714 ], [ 127.059553750412562, 37.483389964135675 ] ] ] } },
{ "type": "Feature", "properties": { "grid_id": "G0108", "cell_area_m2": 250000.0 }, "geometry": { "type": "Polygon", "coordinates": [ [ [ 127.059527291759196, 37.487896674952182 ], [ 127.059500827212801, 37.492403382306307 ], [ 127.065156833346819, 37.492424336229952 ], [ 127.065182958114889, 37.487917625484549 ], [ 127.059527291759196, 37.487896674952182 ] ] ] } },
{ "type": "Feature", "properties": { "grid_id": "G0109", "cell_area_m2": 250000.0 }, "geometry": { "type": "Polygon", "coordinates": [ [ [ 127.059500827212801, 37.492403382306307 ], [ 127.059474356772, 37.496910086197857 ], [ 127.065130702760015, 37.496931043513214 ], [ 127.065156833346819, 37.492424336229952 ], [ 127.059500827212801, 37.492403382306307 ] ] ] } },
{ "type": "Feature", "properties": { "grid_id": "G0110", "cell_area_m2": 250000.0 }, "geometry": { "type": "Polygon", "coordinates": [ [ [ 127.059474356772, 37.496910086197857 ], [ 127.059447880435414, 37.501416786626734 ], [ 127.065104566353085, 37.501437747334194 ], [ 127.065130702760015, 37.496931043513214 ], [ 127.059474356772, 37.496910086197857 ] ] ] } },
{ "type": "Feature", "properties": { "grid_id": "G0111", "cell_area_m2": 250000.0 }, "geometry": { "type": "Polygon", "coordinates": [ [ [ 127.059447880435414, 37.501416786626734 ], [ 127.059421398201621, 37.50592348359276 ], [ 127.065078424124692, 37.505944447692734 ], [ 127.065104566353085, 37.501437747334194 ], [ 127.059447880435414, 37.501416786626734 ] ] ] } },
{ "type": "Feature", "properties": { "grid_id": "G0112", "cell_area_m2": 250000.0 }, "geometry": { "type": "Polygon", "coordinates": [ [ [ 127.059421398201621, 37.50592348359276 ], [ 127.059394910069273, 37.510430177095827 ], [ 127.065052276073459, 37.510451144588686 ], [ 127.065078424124692, 37.505944447692734 ], [ 127.059421398201621, 37.50592348359276 ] ] ] } },
{ "type": "Feature", "properties": { "grid_id": "G0113", "cell_area_m2": 250000.0 }, "geometry": { "type": "Polygon", "coordinates": [ [ [ 127.059394910069273, 37.510430177095827 ], [ 127.059368416036932, 37.514936867135738 ], [ 127.06502612219802, 37.514957838021914 ], [ 127.065052276073459, 37.510451144588686 ], [ 127.059394910069273, 37.510430177095827 ] ] ] } },
{ "type": "Feature", "properties": { "grid_id": "G0114", "cell_area_m2": 250000.0 }, "geometry": { "type": "Polygon", "coordinates": [ [ [ 127.059368416036932, 37.514936867135738 ], [ 127.059341916103278, 37.519443553712385 ], [ 127.064999962496969, 37.519464527992277 ], [ 127.06502612219802, 37.514957838021914 ], [ 127.059368416036932, 37.514936867135738 ] ] ] } },
{ "type": "Feature", "properties": { "grid_id": "G0115", "cell_area_m2": 250000.0 }, "geometry": { "type": "Polygon", "coordinates": [ [ [ 127.059341916103278, 37.519443553712385 ], [ 127.05931541026689, 37.523950236825598 ], [ 127.064973796968971, 37.523971214499596 ], [ 127.064999962496969, 37.519464527992277 ], [ 127.059341916103278, 37.519443553712385 ] ] ] } },
{ "type": "Feature", "properties": { "grid_id": "G0116", "cell_area_m2": 175038.8 }, "geometry": { "type": "Polygon", "coordinates": [ [ [ 127.064973796968971, 37.523971214499596 ], [ 127.05931541026689, 37.523950236825598 ], [ 127.059288898526361, 37.528456916475264 ], [ 127.059898687023662, 37.528459190445318 ], [ 127.0628655, 37.5266359 ], [ 127.064096600000013, 37.5260257 ], [ 127.064964364616486, 37.525595572852382 ], [ 127.064973796968971, 37.523971214499596 ] ] ] } },
{ "type": "Feature", "properties": { "grid_id": "G0117", "cell_area_m2": 1130.9 }, "geometry": { "type": "Polygon", "coordinates": [ [ [ 127.059288898526361, 37.528456916475264 ], [ 127.059286672368614, 37.528835290903999 ], [ 127.059898687023662, 37.528459190445318 ], [ 127.059288898526361, 37.528456916475264 ] ] ] } },
{ "type": "Feature", "properties": { "grid_id": "G0118", "cell_area_m2": 5247.9 }, "geometry": { "type": "Polygon", "coordinates": [ [ [ 127.065287399027142, 37.469890747884399 ], [ 127.067380278946402, 37.46989842886429 ], [ 127.067045900000011, 37.469661 ], [ 127.065289295708411, 37.469563224854049 ], [ 127.065287399027142, 37.469890747884399 ] ] ] } },
{ "type": "Feature", "properties": { "grid_id": "G0119", "cell_area_m2": 220021.1 }, "geometry": { "type": "Polygon", "coordinates": [ [ [ 127.065287399027142, 37.469890747884399 ], [ 127.065261297520351, 37.474397472476923 ], [ 127.070915950808242, 37.474418142241085 ], [ 127.070933139415075, 37.471411333567126 ], [ 127.0701035, 37.470975 ], [ 127.06862270000002, 37.4707806 ], [ 127.067380278946402, 37.46989842886429 ], [ 127.065287399027142, 37.469890747884399 ] ] ] } },
{ "type": "Feature", "properties": { "grid_id": "G0120", "cell_area_m2": 250000.0 }, "geometry": { "type": "Polygon", "coordinates": [ [ [ 127.065261297520351, 37.474397472476923 ], [ 127.065235190200298, 37.478904193607875 ], [ 127.070890183040945, 37.478924866718323 ], [ 127.070915950808242, 37.474418142241085 ], [ 127.065261297520351, 37.474397472476923 ] ] ] } },
{ "type": "Feature", "properties": { "grid_id": "G0121", "cell_area_m2": 250000.0 }, "geometry": { "type": "Polygon", "coordinates": [ [ [ 127.065235190200298, 37.478904193607875 ], [ 127.065209077065603, 37.48341091127714 ], [ 127.07086440953465, 37.483431587734266 ], [ 127.070890183040945, 37.478924866718323 ], [ 127.065235190200298, 37.478904193607875 ] ] ] } },
{ "type": "Feature", "properties": { "grid_id": "G0122", "cell_area_m2": 250000.0 }, "geometry": { "type": "Polygon", "coordinates": [ [ [ 127.065209077065603, 37.48341091127714 ], [ 127.065182958114889, 37.487917625484549 ], [ 127.070838630287966, 37.487938305288765 ], [ 127.07086440953465, 37.483431587734266 ], [ 127.065209077065603, 37.48341091127714 ] ] ] } },
{ "type": "Feature", "properties": { "grid_id": "G0123", "cell_area_m2": 250000.0 }, "geometry": { "type": "Polygon", "coordinates": [ [ [ 127.065182958114889, 37.487917625484549 ], [ 127.065156833346819, 37.492424336229952 ], [ 127.070812845299571, 37.492445019381655 ], [ 127.070838630287966, 37.487938305288765 ], [ 127.065182958114889, 37.487917625484549 ] ] ] } },
{ "type": "Feature", "properties": { "grid_id": "G0124", "cell_area_m2": 250000.0 }, "geometry": { "type": "Polygon", "coordinates": [ [ [ 127.065156833346819, 37.492424336229952 ], [ 127.065130702760015, 37.496931043513214 ], [ 127.070787054568129, 37.496951730012782 ], [ 127.070812845299571, 37.492445019381655 ], [ 127.065156833346819, 37.492424336229952 ] ] ] } },
{ "type": "Feature", "properties": { "grid_id": "G0125", "cell_area_m2": 250000.0 }, "geometry": { "type": "Polygon", "coordinates": [ [ [ 127.065130702760015, 37.496931043513214 ], [ 127.065104566353085, 37.501437747334194 ], [ 127.070761258092261, 37.501458437182031 ], [ 127.070787054568129, 37.496951730012782 ], [ 127.065130702760015, 37.496931043513214 ] ] ] } },
{ "type": "Feature", "properties": { "grid_id": "G0126", "cell_area_m2": 224490.0 }, "geometry": { "type": "Polygon", "coordinates": [ [ [ 127.070761258092261, 37.501458437182031 ], [ 127.065104566353085, 37.501437747334194 ], [ 127.065078424124692, 37.505944447692734 ], [ 127.069318465473913, 37.505959983026763 ], [ 127.0693221, 37.5059347 ], [ 127.0696145, 37.5047789 ], [ 127.0699337, 37.504049 ], [ 127.070221300000014, 37.5036751 ], [ 127.070499700000013, 37.5033958 ], [ 127.070751361947174, 37.503187050575313 ], [ 127.070761258092261, 37.501458437182031 ] ] ] } },
{ "type": "Feature", "properties": { "grid_id": "G0127", "cell_area_m2": 173408.1 }, "geometry": { "type": "Polygon", "coordinates": [ [ [ 127.065078424124692, 37.505944447692734 ], [ 127.065052276073459, 37.510451144588686 ], [ 127.068648854624598, 37.51046433344284 ], [ 127.06867530000001, 37.5102901 ], [ 127.068978, 37.5083283 ], [ 127.069318465473913, 37.505959983026763 ], [ 127.065078424124692, 37.505944447692734 ] ] ] } },
{ "type": "Feature", "properties": { "grid_id": "G0128", "cell_area_m2": 144293.8 }, "geometry": { "type": "Polygon", "coordinates": [ [ [ 127.065052276073459, 37.510451144588686 ], [ 127.06502612219802, 37.514957838021914 ], [ 127.067952373421164, 37.51496857814621 ], [ 127.0682239, 37.513264 ], [ 127.068648854624598, 37.51046433344284 ], [ 127.065052276073459, 37.510451144588686 ] ] ] } },
{ "type": "Feature", "properties": { "grid_id": "G0129", "cell_area_m2": 114025.5 }, "geometry": { "type": "Polygon", "coordinates": [ [ [ 127.06502612219802, 37.514957838021914 ], [ 127.064999962496969, 37.519464527992277 ], [ 127.067234832213259, 37.519472737938692 ], [ 127.067952373421164, 37.51496857814621 ], [ 127.06502612219802, 37.514957838021914 ] ] ] } },
{ "type": "Feature", "properties": { "grid_id": "G0130", "cell_area_m2": 88457.6 }, "geometry": { "type": "Polygon", "coordinates": [ [ [ 127.064999962496969, 37.519464527992277 ], [ 127.064973796968971, 37.523971214499596 ], [ 127.066716827322011, 37.523977621922022 ], [ 127.0668037, 37.5233479 ], [ 127.067142499999989, 37.5204265 ], [ 127.0672335, 37.5194811 ], [ 127.067234832213259, 37.519472737938692 ], [ 127.064999962496969, 37.519464527992277 ] ] ] } },
{ "type": "Feature", "properties": { "grid_id": "G0131", "cell_area_m2": 20546.0 }, "geometry": { "type": "Polygon", "coordinates": [ [ [ 127.064973796968971, 37.523971214499596 ], [ 127.064964364616486, 37.525595572852382 ], [ 127.0651947, 37.5254814 ], [ 127.066592200000017, 37.524881 ], [ 127.066716827322011, 37.523977621922022 ], [ 127.064973796968971, 37.523971214499596 ] ] ] } },
{ "type": "Feature", "properties": { "grid_id": "G0132", "cell_area_m2": 94042.6 }, "geometry": { "type": "Polygon", "coordinates": [ [ [ 127.070915950808242, 37.474418142241085 ], [ 127.076453820768194, 37.474438122828353 ], [ 127.0763691, 37.47431550000001 ], [ 127.0752336, 37.4733682 ], [ 127.0740981, 37.472906 ], [ 127.0738092, 37.472805 ], [ 127.0727387, 37.4719554 ], [ 127.071812300000019, 37.4718737 ], [ 127.070933139415075, 37.471411333567126 ], [ 127.070915950808242, 37.474418142241085 ] ] ] } },
{ "type": "Feature", "properties": { "grid_id": "G0133", "cell_area_m2": 249904.2 }, "geometry": { "type": "Polygon", "coordinates": [ [ [ 127.070915950808242, 37.474418142241085 ], [ 127.070890183040945, 37.478924866718323 ], [ 127.076545181620631, 37.478945269187406 ], [ 127.076569666249171, 37.474605794081889 ], [ 127.076453820768194, 37.474438122828353 ], [ 127.070915950808242, 37.474418142241085 ] ] ] } },
{ "type": "Feature", "properties": { "grid_id": "G0134", "cell_area_m2": 250000.0 }, "geometry": { "type": "Polygon", "coordinates": [ [ [ 127.070890183040945, 37.478924866718323 ], [ 127.07086440953465, 37.483431587734266 ], [ 127.076519747744044, 37.483451993506222 ], [ 127.076545181620631, 37.478945269187406 ], [ 127.070890183040945, 37.478924866718323 ] ] ] } },
{ "type": "Feature", "properties": { "grid_id": "G0135", "cell_area_m2": 250000.0 }, "geometry": { "type": "Polygon", "coordinates": [ [ [ 127.07086440953465, 37.483431587734266 ], [ 127.070838630287966, 37.487938305288765 ], [ 127.076494308202754, 37.487958714363977 ], [ 127.076519747744044, 37.483451993506222 ], [ 127.07086440953465, 37.483431587734266 ] ] ] } },
{ "type": "Feature", "properties": { "grid_id": "G0136", "cell_area_m2": 250000.0 }, "geometry": { "type": "Polygon", "coordinates": [ [ [ 127.070838630287966, 37.487938305288765 ], [ 127.070812845299571, 37.492445019381655 ], [ 127.076468862995384, 37.492465431760522 ], [ 127.076494308202754, 37.487958714363977 ], [ 127.070838630287966, 37.487938305288765 ] ] ] } },
{ "type": "Feature", "properties": { "grid_id": "G0137", "cell_area_m2": 250000.0 }, "geometry": { "type": "Polygon", "coordinates": [ [ [ 127.070812845299571, 37.492445019381655 ], [ 127.070787054568129, 37.496951730012782 ], [ 127.076443412120639, 37.496972145695693 ], [ 127.076468862995384, 37.492465431760522 ], [ 127.070812845299571, 37.492445019381655 ] ] ] } },
{ "type": "Feature", "properties": { "grid_id": "G0138", "cell_area_m2": 250000.0 }, "geometry": { "type": "Polygon", "coordinates": [ [ [ 127.070787054568129, 37.496951730012782 ], [ 127.070761258092261, 37.501458437182031 ], [ 127.076417955577185, 37.501478856169371 ], [ 127.076443412120639, 37.496972145695693 ], [ 127.070787054568129, 37.496951730012782 ] ] ] } },
{ "type": "Feature", "properties": { "grid_id": "G0139", "cell_area_m2": 40765.1 }, "geometry": { "type": "Polygon", "coordinates": [ [ [ 127.076417955577185, 37.501478856169371 ], [ 127.070761258092261, 37.501458437182031 ], [ 127.070751361947174, 37.503187050575313 ], [ 127.0708158, 37.5031336 ], [ 127.072019700000013, 37.5024787 ], [ 127.0729177, 37.502233 ], [ 127.073455800000019, 37.5021222 ], [ 127.076416866920511, 37.50167156453206 ], [ 127.076417955577185, 37.501478856169371 ] ] ] } },
{ "type": "Feature", "properties": { "grid_id": "G0140", "cell_area_m2": 221609.8 }, "geometry": { "type": "Polygon", "coordinates": [ [ [ 127.076545181620631, 37.478945269187406 ], [ 127.082200185863684, 37.478965401014264 ], [ 127.082220955471783, 37.475234582170771 ], [ 127.079771100000016, 37.4749217 ], [ 127.0790068, 37.4748215 ], [ 127.078014100000019, 37.4747892 ], [ 127.077242500000011, 37.475008699999989 ], [ 127.076864, 37.4750318 ], [ 127.076569666249171, 37.474605794081889 ], [ 127.076545181620631, 37.478945269187406 ] ] ] } },
{ "type": "Feature", "properties": { "grid_id": "G0141", "cell_area_m2": 250000.0 }, "geometry": { "type": "Polygon", "coordinates": [ [ [ 127.076545181620631, 37.478945269187406 ], [ 127.076519747744044, 37.483451993506222 ], [ 127.082175091618183, 37.48347212859214 ], [ 127.082200185863684, 37.478965401014264 ], [ 127.076545181620631, 37.478945269187406 ] ] ] } },
{ "type": "Feature", "properties": { "grid_id": "G0142", "cell_area_m2": 250000.0 }, "geometry": { "type": "Polygon", "coordinates": [ [ [ 127.076519747744044, 37.483451993506222 ], [ 127.076494308202754, 37.487958714363977 ], [ 127.082149991783595, 37.487978852709333 ], [ 127.082175091618183, 37.48347212859214 ], [ 127.076519747744044, 37.483451993506222 ] ] ] } },
{ "type": "Feature", "properties": { "grid_id": "G0143", "cell_area_m2": 250000.0 }, "geometry": { "type": "Polygon", "coordinates": [ [ [ 127.076494308202754, 37.487958714363977 ], [ 127.076468862995384, 37.492465431760522 ], [ 127.082124886358585, 37.49248557336572 ], [ 127.082149991783595, 37.487978852709333 ], [ 127.076494308202754, 37.487958714363977 ] ] ] } },
{ "type": "Feature", "properties": { "grid_id": "G0144", "cell_area_m2": 250000.0 }, "geometry": { "type": "Polygon", "coordinates": [ [ [ 127.076468862995384, 37.492465431760522 ], [ 127.076443412120639, 37.496972145695693 ], [ 127.082099775341888, 37.49699229056111 ], [ 127.082124886358585, 37.49248557336572 ], [ 127.076468862995384, 37.492465431760522 ] ] ] } },
{ "type": "Feature", "properties": { "grid_id": "G0145", "cell_area_m2": 232693.1 }, "geometry": { "type": "Polygon", "coordinates": [ [ [ 127.082099775341888, 37.49699229056111 ], [ 127.076443412120639, 37.496972145695693 ], [ 127.076417955577185, 37.501478856169371 ], [ 127.07776022802453, 37.501483661607004 ], [ 127.07823, 37.5014221 ], [ 127.079449100000019, 37.50121810000001 ], [ 127.080917400000018, 37.500887 ], [ 127.082079926472645, 37.500553888596876 ], [ 127.082099775341888, 37.49699229056111 ] ] ] } },
{ "type": "Feature", "properties": { "grid_id": "G0146", "cell_area_m2": 1223.3 }, "geometry": { "type": "Polygon", "coordinates": [ [ [ 127.076417955577185, 37.501478856169371 ], [ 127.076416866920511, 37.50167156453206 ], [ 127.0769705, 37.5015873 ], [ 127.07765310000002, 37.5014977 ], [ 127.07776022802453, 37.501483661607004 ], [ 127.076417955577185, 37.501478856169371 ] ] ] } },
{ "type": "Feature", "properties": { "grid_id": "G0147", "cell_area_m2": 887.9 }, "geometry": { "type": "Polygon", "coordinates": [ [ [ 127.087904688385606, 37.469971790231497 ], [ 127.087907531607428, 37.469453868163612 ], [ 127.0877486, 37.4698151 ], [ 127.087265977392292, 37.469969561002003 ], [ 127.087904688385606, 37.469971790231497 ] ] ] } },
{ "type": "Feature", "properties": { "grid_id": "G0148", "cell_area_m2": 120674.7 }, "geometry": { "type": "Polygon", "coordinates": [ [ [ 127.087879944795489, 37.474478527944797 ], [ 127.087904688385606, 37.469971790231497 ], [ 127.087265977392292, 37.469969561002003 ], [ 127.085943500000013, 37.470392800000013 ], [ 127.085302900000016, 37.4713402 ], [ 127.084662400000013, 37.4731194 ], [ 127.084575753763431, 37.47446695721154 ], [ 127.087879944795489, 37.474478527944797 ] ] ] } },
{ "type": "Feature", "properties": { "grid_id": "G0149", "cell_area_m2": 228753.4 }, "geometry": { "type": "Polygon", "coordinates": [ [ [ 127.082200185863684, 37.478965401014264 ], [ 127.087855195694516, 37.478985262198059 ], [ 127.087879944795489, 37.474478527944797 ], [ 127.084575753763431, 37.47446695721154 ], [ 127.084516800000017, 37.4753838 ], [ 127.083235800000011, 37.4754763 ], [ 127.0823041, 37.4752452 ], [ 127.082220955471783, 37.475234582170771 ], [ 127.082200185863684, 37.478965401014264 ] ] ] } },
{ "type": "Feature", "properties": { "grid_id": "G0150", "cell_area_m2": 250000.0 }, "geometry": { "type": "Polygon", "coordinates": [ [ [ 127.082200185863684, 37.478965401014264 ], [ 127.082175091618183, 37.48347212859214 ], [ 127.08783044108138, 37.483491992991198 ], [ 127.087855195694516, 37.478985262198059 ], [ 127.082200185863684, 37.478965401014264 ] ] ] } },
{ "type": "Feature", "properties": { "grid_id": "G0151", "cell_area_m2": 250000.0 }, "geometry": { "type": "Polygon", "coordinates": [ [ [ 127.082175091618183, 37.48347212859214 ], [ 127.082149991783595, 37.487978852709333 ], [ 127.08780568095483, 37.487998720324022 ], [ 127.08783044108138, 37.483491992991198 ], [ 127.082175091618183, 37.48347212859214 ] ] ] } },
{ "type": "Feature", "properties": { "grid_id": "G0152", "cell_area_m2": 250000.0 }, "geometry": { "type": "Polygon", "coordinates": [ [ [ 127.082149991783595, 37.487978852709333 ], [ 127.082124886358585, 37.49248557336572 ], [ 127.087780915313516, 37.492505444196411 ], [ 127.08780568095483, 37.487998720324022 ], [ 127.082149991783595, 37.487978852709333 ] ] ] } },
{ "type": "Feature", "properties": { "grid_id": "G0153", "cell_area_m2": 250000.0 }, "geometry": { "type": "Polygon", "coordinates": [ [ [ 127.082124886358585, 37.49248557336572 ], [ 127.082099775341888, 37.49699229056111 ], [ 127.08775614415616, 37.497012164608201 ], [ 127.087780915313516, 37.492505444196411 ], [ 127.082124886358585, 37.49248557336572 ] ] ] } },
{ "type": "Feature", "properties": { "grid_id": "G0154", "cell_area_m2": 150170.8 }, "geometry": { "type": "Polygon", "coordinates": [ [ [ 127.08775614415616, 37.497012164608201 ], [ 127.082099775341888, 37.49699229056111 ], [ 127.082079926472645, 37.500553888596876 ], [ 127.082332199999982, 37.5004816 ], [ 127.083163500000012, 37.5002366 ], [ 127.085050900000013, 37.4996619 ], [ 127.087745938335516, 37.498868659397019 ], [ 127.08775614415616, 37.497012164608201 ] ] ] } },
{ "type": "Feature", "properties": { "grid_id": "G0155", "cell_area_m2": 61994.3 }, "geometry": { "type": "Polygon", "coordinates": [ [ [ 127.09358342336175, 37.46548463008623 ], [ 127.093607151743043, 37.461100731099826 ], [ 127.09310570000001, 37.4611955 ], [ 127.0925816, 37.461727 ], [ 127.091793600000017, 37.4629524 ], [ 127.0920867, 37.4647544 ], [ 127.091834962656563, 37.465478603678797 ], [ 127.09358342336175, 37.46548463008623 ] ] ] } },
{ "type": "Feature", "properties": { "grid_id": "G0156", "cell_area_m2": 172102.9 }, "geometry": { "type": "Polygon", "coordinates": [ [ [ 127.087904688385606, 37.469971790231497 ], [ 127.093559024688091, 37.469991374429689 ], [ 127.09358342336175, 37.46548463008623 ], [ 127.091834962656563, 37.465478603678797 ], [ 127.091620800000015, 37.4660947 ], [ 127.091155, 37.466995900000015 ], [ 127.0896119, 37.4673888 ], [ 127.0891461, 37.4680358 ], [ 127.0883891, 37.4683593 ], [ 127.087907531607428, 37.469453868163612 ], [ 127.087904688385606, 37.469971790231497 ] ] ] } },
{ "type": "Feature", "properties": { "grid_id": "G0157", "cell_area_m2": 250000.0 }, "geometry": { "type": "Polygon", "coordinates": [ [ [ 127.087904688385606, 37.469971790231497 ], [ 127.087879944795489, 37.474478527944797 ], [ 127.0935346205804, 37.474498115313665 ], [ 127.093559024688091, 37.469991374429689 ], [ 127.087904688385606, 37.469971790231497 ] ] ] } },
{ "type": "Feature", "properties": { "grid_id": "G0158", "cell_area_m2": 250000.0 }, "geometry": { "type": "Polygon", "coordinates": [ [ [ 127.087879944795489, 37.474478527944797 ], [ 127.087855195694516, 37.478985262198059 ], [ 127.093510211037511, 37.479004852738001 ], [ 127.0935346205804, 37.474498115313665 ], [ 127.087879944795489, 37.474478527944797 ] ] ] } },
{ "type": "Feature", "properties": { "grid_id": "G0159", "cell_area_m2": 250000.0 }, "geometry": { "type": "Polygon", "coordinates": [ [ [ 127.087855195694516, 37.478985262198059 ], [ 127.08783044108138, 37.483491992991198 ], [ 127.093485796058047, 37.483511586702562 ], [ 127.093510211037511, 37.479004852738001 ], [ 127.087855195694516, 37.478985262198059 ] ] ] } },
{ "type": "Feature", "properties": { "grid_id": "G0160", "cell_area_m2": 250000.0 }, "geometry": { "type": "Polygon", "coordinates": [ [ [ 127.08783044108138, 37.483491992991198 ], [ 127.08780568095483, 37.487998720324022 ], [ 127.093461375640814, 37.488018317207214 ], [ 127.093485796058047, 37.483511586702562 ], [ 127.08783044108138, 37.483491992991198 ] ] ] } },
{ "type": "Feature", "properties": { "grid_id": "G0161", "cell_area_m2": 250000.0 }, "geometry": { "type": "Polygon", "coordinates": [ [ [ 127.08780568095483, 37.487998720324022 ], [ 127.087780915313516, 37.492505444196411 ], [ 127.093436949784476, 37.492525044251785 ], [ 127.093461375640814, 37.488018317207214 ], [ 127.08780568095483, 37.487998720324022 ] ] ] } },
{ "type": "Feature", "properties": { "grid_id": "G0162", "cell_area_m2": 250000.0 }, "geometry": { "type": "Polygon", "coordinates": [ [ [ 127.087780915313516, 37.492505444196411 ], [ 127.08775614415616, 37.497012164608201 ], [ 127.093412518487781, 37.497031767836134 ], [ 127.093436949784476, 37.492525044251785 ], [ 127.087780915313516, 37.492505444196411 ] ] ] } },
{ "type": "Feature", "properties": { "grid_id": "G0163", "cell_area_m2": 53204.5 }, "geometry": { "type": "Polygon", "coordinates": [ [ [ 127.093412518487781, 37.497031767836134 ], [ 127.08775614415616, 37.497012164608201 ], [ 127.087745938335516, 37.498868659397019 ], [ 127.0880502, 37.4987791 ], [ 127.0886612, 37.4985993 ], [ 127.091859700000015, 37.4975705 ], [ 127.092970099999988, 37.4972134 ], [ 127.093412208156991, 37.497089006588055 ], [ 127.093412518487781, 37.497031767836134 ] ] ] } },
{ "type": "Feature", "properties": { "grid_id": "G0164", "cell_area_m2": 136283.9 }, "geometry": { "type": "Polygon", "coordinates": [ [ [ 127.099261479598496, 37.460997189671879 ], [ 127.099282824843414, 37.456997091630221 ], [ 127.0983014, 37.4565506 ], [ 127.096453900000014, 37.4564808 ], [ 127.0964248, 37.4576826 ], [ 127.095958900000014, 37.4587458 ], [ 127.095842499999989, 37.4598551 ], [ 127.0961336, 37.460895 ], [ 127.094328500000017, 37.4609644 ], [ 127.094245569122094, 37.460980073757952 ], [ 127.099261479598496, 37.460997189671879 ] ] ] } },
{ "type": "Feature", "properties": { "grid_id": "G0165", "cell_area_m2": 249615.6 }, "geometry": { "type": "Polygon", "coordinates": [ [ [ 127.09358342336175, 37.46548463008623 ], [ 127.099237425690063, 37.465503940600826 ], [ 127.099261479598496, 37.460997189671879 ], [ 127.094245569122094, 37.460980073757952 ], [ 127.093607151743043, 37.461100731099826 ], [ 127.09358342336175, 37.46548463008623 ] ] ] } },
{ "type": "Feature", "properties": { "grid_id": "G0166", "cell_area_m2": 250000.0 }, "geometry": { "type": "Polygon", "coordinates": [ [ [ 127.09358342336175, 37.46548463008623 ], [ 127.093559024688091, 37.469991374429689 ], [ 127.099213366424536, 37.470010688070793 ], [ 127.099237425690063, 37.465503940600826 ], [ 127.09358342336175, 37.46548463008623 ] ] ] } },
{ "type": "Feature", "properties": { "grid_id": "G0167", "cell_area_m2": 250000.0 }, "geometry": { "type": "Polygon", "coordinates": [ [ [ 127.093559024688091, 37.469991374429689 ], [ 127.0935346205804, 37.474498115313665 ], [ 127.099189301800607, 37.474517432081655 ], [ 127.099213366424536, 37.470010688070793 ], [ 127.093559024688091, 37.469991374429689 ] ] ] } },
{ "type": "Feature", "properties": { "grid_id": "G0168", "cell_area_m2": 250000.0 }, "geometry": { "type": "Polygon", "coordinates": [ [ [ 127.0935346205804, 37.474498115313665 ], [ 127.093510211037511, 37.479004852738001 ], [ 127.099165231817011, 37.479024172633245 ], [ 127.099189301800607, 37.474517432081655 ], [ 127.0935346205804, 37.474498115313665 ] ] ] } },
{ "type": "Feature", "properties": { "grid_id": "G0169", "cell_area_m2": 250000.0 }, "geometry": { "type": "Polygon", "coordinates": [ [ [ 127.093510211037511, 37.479004852738001 ], [ 127.093485796058047, 37.483511586702562 ], [ 127.099141156472527, 37.483530909725438 ], [ 127.099165231817011, 37.479024172633245 ], [ 127.093510211037511, 37.479004852738001 ] ] ] } },
{ "type": "Feature", "properties": { "grid_id": "G0170", "cell_area_m2": 250000.0 }, "geometry": { "type": "Polygon", "coordinates": [ [ [ 127.093485796058047, 37.483511586702562 ], [ 127.093461375640814, 37.488018317207214 ], [ 127.099117075765875, 37.488037643358084 ], [ 127.099141156472527, 37.483530909725438 ], [ 127.093485796058047, 37.483511586702562 ] ] ] } },
{ "type": "Feature", "properties": { "grid_id": "G0171", "cell_area_m2": 250000.0 }, "geometry": { "type": "Polygon", "coordinates": [ [ [ 127.093461375640814, 37.488018317207214 ], [ 127.093436949784476, 37.492525044251785 ], [ 127.099092989695805, 37.492544373531025 ], [ 127.099117075765875, 37.488037643358084 ], [ 127.093461375640814, 37.488018317207214 ] ] ] } },
{ "type": "Feature", "properties": { "grid_id": "G0172", "cell_area_m2": 206373.4 }, "geometry": { "type": "Polygon", "coordinates": [ [ [ 127.099092989695805, 37.492544373531025 ], [ 127.093436949784476, 37.492525044251785 ], [ 127.093412518487781, 37.497031767836134 ], [ 127.093613184657855, 37.497032458307864 ], [ 127.0970638, 37.496061499999989 ], [ 127.099078299326152, 37.495292585443046 ], [ 127.099092989695805, 37.492544373531025 ] ] ] } },
{ "type": "Feature", "properties": { "grid_id": "G0173", "cell_area_m2": 56.3 }, "geometry": { "type": "Polygon", "coordinates": [ [ [ 127.093412518487781, 37.497031767836134 ], [ 127.093412208156991, 37.497089006588055 ], [ 127.093613184657855, 37.497032458307864 ], [ 127.093412518487781, 37.497031767836134 ] ] ] } },
{ "type": "Feature", "properties": { "grid_id": "G0174", "cell_area_m2": 110532.8 }, "geometry": { "type": "Polygon", "coordinates": [ [ [ 127.099261479598496, 37.460997189671879 ], [ 127.104403072975344, 37.461014513481608 ], [ 127.1041336, 37.4605193 ], [ 127.1036616, 37.4599402 ], [ 127.1027174, 37.459838 ], [ 127.101945, 37.459327 ], [ 127.101691800000012, 37.4584242 ], [ 127.1004901, 37.4576066 ], [ 127.1003806, 37.4574965 ], [ 127.099282824843414, 37.456997091630221 ], [ 127.099261479598496, 37.460997189671879 ] ] ] } },
{ "type": "Feature", "properties": { "grid_id": "G0175", "cell_area_m2": 245657.1 }, "geometry": { "type": "Polygon", "coordinates": [ [ [ 127.099261479598496, 37.460997189671879 ], [ 127.099237425690063, 37.465503940600826 ], [ 127.104891433375514, 37.465522980601328 ], [ 127.104909213564653, 37.462144100747373 ], [ 127.1043643, 37.462062900000014 ], [ 127.104641300000011, 37.4614523 ], [ 127.104403072975344, 37.461014513481608 ], [ 127.099261479598496, 37.460997189671879 ] ] ] } },
{ "type": "Feature", "properties": { "grid_id": "G0176", "cell_area_m2": 250000.0 }, "geometry": { "type": "Polygon", "coordinates": [ [ [ 127.099237425690063, 37.465503940600826 ], [ 127.099213366424536, 37.470010688070793 ], [ 127.104867713519369, 37.470029731154028 ], [ 127.104891433375514, 37.465522980601328 ], [ 127.099237425690063, 37.465503940600826 ] ] ] } },
{ "type": "Feature", "properties": { "grid_id": "G0177", "cell_area_m2": 250000.0 }, "geometry": { "type": "Polygon", "coordinates": [ [ [ 127.099213366424536, 37.470010688070793 ], [ 127.099189301800607, 37.474517432081655 ], [ 127.104843988380424, 37.47453647824797 ], [ 127.104867713519369, 37.470029731154028 ], [ 127.099213366424536, 37.470010688070793 ] ] ] } },
{ "type": "Feature", "properties": { "grid_id": "G0178", "cell_area_m2": 250000.0 }, "geometry": { "type": "Polygon", "coordinates": [ [ [ 127.099189301800607, 37.474517432081655 ], [ 127.099165231817011, 37.479024172633245 ], [ 127.104820257957414, 37.479043221883011 ], [ 127.104843988380424, 37.47453647824797 ], [ 127.099189301800607, 37.474517432081655 ] ] ] } },
{ "type": "Feature", "properties": { "grid_id": "G0179", "cell_area_m2": 250000.0 }, "geometry": { "type": "Polygon", "coordinates": [ [ [ 127.099165231817011, 37.479024172633245 ], [ 127.099141156472527, 37.483530909725438 ], [ 127.10479652224916, 37.48354996205903 ], [ 127.104820257957414, 37.479043221883011 ], [ 127.099165231817011, 37.479024172633245 ] ] ] } },
{ "type": "Feature", "properties": { "grid_id": "G0180", "cell_area_m2": 250000.0 }, "geometry": { "type": "Polygon", "coordinates": [ [ [ 127.099141156472527, 37.483530909725438 ], [ 127.099117075765875, 37.488037643358084 ], [ 127.104772781254368, 37.488056698775836 ], [ 127.10479652224916, 37.48354996205903 ], [ 127.099141156472527, 37.483530909725438 ] ] ] } },
{ "type": "Feature", "properties": { "grid_id": "G0181", "cell_area_m2": 249164.5 }, "geometry": { "type": "Polygon", "coordinates": [ [ [ 127.104772781254368, 37.488056698775836 ], [ 127.099117075765875, 37.488037643358084 ], [ 127.099092989695805, 37.492544373531025 ], [ 127.104091385234838, 37.492561229941984 ], [ 127.104750400143715, 37.492304367579841 ], [ 127.104772781254368, 37.488056698775836 ] ] ] } },
{ "type": "Feature", "properties": { "grid_id": "G0182", "cell_area_m2": 59617.6 }, "geometry": { "type": "Polygon", "coordinates": [ [ [ 127.099092989695805, 37.492544373531025 ], [ 127.099078299326152, 37.495292585443046 ], [ 127.0992234, 37.4952372 ], [ 127.1006564, 37.4941643 ], [ 127.1018674, 37.4935466 ], [ 127.1025281, 37.4932057 ], [ 127.103468, 37.4928042 ], [ 127.104091385234838, 37.492561229941984 ], [ 127.099092989695805, 37.492544373531025 ] ] ] } },
{ "type": "Feature", "properties": { "grid_id": "G0183", "cell_area_m2": 195460.1 }, "geometry": { "type": "Polygon", "coordinates": [ [ [ 127.104891433375514, 37.465522980601328 ], [ 127.110545446342499, 37.465541750086977 ], [ 127.110566112652307, 37.461557327542323 ], [ 127.1081891, 37.4619662 ], [ 127.1078905, 37.4620219 ], [ 127.1058932, 37.4623588 ], [ 127.1052065, 37.4621884 ], [ 127.104909213564653, 37.462144100747373 ], [ 127.104891433375514, 37.465522980601328 ] ] ] } },
{ "type": "Feature", "properties": { "grid_id": "G0184", "cell_area_m2": 250000.0 }, "geometry": { "type": "Polygon", "coordinates": [ [ [ 127.104891433375514, 37.465522980601328 ], [ 127.104867713519369, 37.470029731154028 ], [ 127.110522065897001, 37.470048503678591 ], [ 127.110545446342499, 37.465541750086977 ], [ 127.104891433375514, 37.465522980601328 ] ] ] } },
{ "type": "Feature", "properties": { "grid_id": "G0185", "cell_area_m2": 250000.0 }, "geometry": { "type": "Polygon", "coordinates": [ [ [ 127.104867713519369, 37.470029731154028 ], [ 127.104843988380424, 37.47453647824797 ], [ 127.110498680244277, 37.474555253811829 ], [ 127.110522065897001, 37.470048503678591 ], [ 127.104867713519369, 37.470029731154028 ] ] ] } },
{ "type": "Feature", "properties": { "grid_id": "G0186", "cell_area_m2": 250000.0 }, "geometry": { "type": "Polygon", "coordinates": [ [ [ 127.104843988380424, 37.47453647824797 ], [ 127.104820257957414, 37.479043221883011 ], [ 127.110475289383132, 37.479062000486515 ], [ 127.110498680244277, 37.474555253811829 ], [ 127.104843988380424, 37.47453647824797 ] ] ] } },
{ "type": "Feature", "properties": { "grid_id": "G0187", "cell_area_m2": 250000.0 }, "geometry": { "type": "Polygon", "coordinates": [ [ [ 127.104820257957414, 37.479043221883011 ], [ 127.10479652224916, 37.48354996205903 ], [ 127.11045189331233, 37.483568743702527 ], [ 127.110475289383132, 37.479062000486515 ], [ 127.104820257957414, 37.479043221883011 ] ] ] } },
{ "type": "Feature", "properties": { "grid_id": "G0188", "cell_area_m2": 238220.6 }, "geometry": { "type": "Polygon", "coordinates": [ [ [ 127.11045189331233, 37.483568743702527 ], [ 127.10479652224916, 37.48354996205903 ], [ 127.104772781254368, 37.488056698775836 ], [ 127.10900656190968, 37.488070786188217 ], [ 127.1092589, 37.4878119 ], [ 127.110437506361947, 37.486339576206056 ], [ 127.11045189331233, 37.483568743702527 ] ] ] } },
{ "type": "Feature", "properties": { "grid_id": "G0189", "cell_area_m2": 101333.6 }, "geometry": { "type": "Polygon", "coordinates": [ [ [ 127.104772781254368, 37.488056698775836 ], [ 127.104750400143715, 37.492304367579841 ], [ 127.1053658, 37.4920645 ], [ 127.106340900000021, 37.491423 ], [ 127.106937799999983, 37.4907227 ], [ 127.1078782, 37.4892284 ], [ 127.10900656190968, 37.488070786188217 ], [ 127.104772781254368, 37.488056698775836 ] ] ] } },
{ "type": "Feature", "properties": { "grid_id": "G0190", "cell_area_m2": 41387.2 }, "geometry": { "type": "Polygon", "coordinates": [ [ [ 127.116222500418701, 37.46105348901235 ], [ 127.116235226680146, 37.458563282499576 ], [ 127.116018, 37.4586278 ], [ 127.1149376, 37.4592324 ], [ 127.1137467, 37.4607569 ], [ 127.1131459, 37.4608931 ], [ 127.112838106351262, 37.461042449483983 ], [ 127.116222500418701, 37.46105348901235 ] ] ] } },
{ "type": "Feature", "properties": { "grid_id": "G0191", "cell_area_m2": 243043.6 }, "geometry": { "type": "Polygon", "coordinates": [ [ [ 127.110545446342499, 37.465541750086977 ], [ 127.116199464515475, 37.465560249056985 ], [ 127.116222500418701, 37.46105348901235 ], [ 127.112838106351262, 37.461042449483983 ], [ 127.1124421, 37.4612346 ], [ 127.110566112652307, 37.461557327542323 ], [ 127.110545446342499, 37.465541750086977 ] ] ] } },
{ "type": "Feature", "properties": { "grid_id": "G0192", "cell_area_m2": 250000.0 }, "geometry": { "type": "Polygon", "coordinates": [ [ [ 127.110545446342499, 37.465541750086977 ], [ 127.110522065897001, 37.470048503678591 ], [ 127.116176423481846, 37.470067005643727 ], [ 127.116199464515475, 37.465560249056985 ], [ 127.110545446342499, 37.465541750086977 ] ] ] } },
{ "type": "Feature", "properties": { "grid_id": "G0193", "cell_area_m2": 250000.0 }, "geometry": { "type": "Polygon", "coordinates": [ [ [ 127.110522065897001, 37.470048503678591 ], [ 127.110498680244277, 37.474555253811829 ], [ 127.116153377316564, 37.474573758772436 ], [ 127.116176423481846, 37.470067005643727 ], [ 127.110522065897001, 37.470048503678591 ] ] ] } },
{ "type": "Feature", "properties": { "grid_id": "G0194", "cell_area_m2": 246424.9 }, "geometry": { "type": "Polygon", "coordinates": [ [ [ 127.116153377316564, 37.474573758772436 ], [ 127.110498680244277, 37.474555253811829 ], [ 127.110475289383132, 37.479062000486515 ], [ 127.115620675968955, 37.479078851543903 ], [ 127.115692400000015, 37.4789746 ], [ 127.1159575, 37.4780104 ], [ 127.116136791265333, 37.477816592345896 ], [ 127.116153377316564, 37.474573758772436 ] ] ] } },
{ "type": "Feature", "properties": { "grid_id": "G0195", "cell_area_m2": 143328.6 }, "geometry": { "type": "Polygon", "coordinates": [ [ [ 127.110475289383132, 37.479062000486515 ], [ 127.11045189331233, 37.483568743702527 ], [ 127.112312328769022, 37.483574863084982 ], [ 127.112334500000017, 37.4834362 ], [ 127.1123657, 37.4832028 ], [ 127.112512, 37.4826335 ], [ 127.1131253, 37.4816737 ], [ 127.1141553, 37.4807805 ], [ 127.115037700000016, 37.4799262 ], [ 127.115620675968955, 37.479078851543903 ], [ 127.110475289383132, 37.479062000486515 ] ] ] } },
{ "type": "Feature", "properties": { "grid_id": "G0196", "cell_area_m2": 29287.2 }, "geometry": { "type": "Polygon", "coordinates": [ [ [ 127.11045189331233, 37.483568743702527 ], [ 127.110437506361947, 37.486339576206056 ], [ 127.1110954, 37.4855177 ], [ 127.1116362, 37.4848676 ], [ 127.1118263, 37.4846464 ], [ 127.111974599999982, 37.4844895 ], [ 127.112121299999984, 37.4842822 ], [ 127.1122381, 37.4840391 ], [ 127.112312328769022, 37.483574863084982 ], [ 127.11045189331233, 37.483568743702527 ] ] ] } },
{ "type": "Feature", "properties": { "grid_id": "G0197", "cell_area_m2": 47722.6 }, "geometry": { "type": "Polygon", "coordinates": [ [ [ 127.116222500418701, 37.46105348901235 ], [ 127.118738985566907, 37.461061634685244 ], [ 127.1173028, 37.4582462 ], [ 127.116235226680146, 37.458563282499576 ], [ 127.116222500418701, 37.46105348901235 ] ] ] } },
{ "type": "Feature", "properties": { "grid_id": "G0198", "cell_area_m2": 169114.1 }, "geometry": { "type": "Polygon", "coordinates": [ [ [ 127.116222500418701, 37.46105348901235 ], [ 127.116199464515475, 37.465560249056985 ], [ 127.121738002448751, 37.465578107894579 ], [ 127.1207201, 37.4644483 ], [ 127.1199925, 37.4635153 ], [ 127.1199444, 37.4634245 ], [ 127.118738985566907, 37.461061634685244 ], [ 127.116222500418701, 37.46105348901235 ] ] ] } },
{ "type": "Feature", "properties": { "grid_id": "G0199", "cell_area_m2": 249868.9 }, "geometry": { "type": "Polygon", "coordinates": [ [ [ 127.121852847662041, 37.46570557619728 ], [ 127.121738002448751, 37.465578107894579 ], [ 127.116199464515475, 37.465560249056985 ], [ 127.116176423481846, 37.470067005643727 ], [ 127.12173901021535, 37.470084943294879 ], [ 127.121831447114502, 37.46995404521261 ], [ 127.121852847662041, 37.46570557619728 ] ] ] } },
{ "type": "Feature", "properties": { "grid_id": "G0200", "cell_area_m2": 171197.5 }, "geometry": { "type": "Polygon", "coordinates": [ [ [ 127.116176423481846, 37.470067005643727 ], [ 127.116153377316564, 37.474573758772436 ], [ 127.118535841314568, 37.474581474341797 ], [ 127.1194818, 37.4729448 ], [ 127.1214887, 37.470439399999989 ], [ 127.12173901021535, 37.470084943294879 ], [ 127.116176423481846, 37.470067005643727 ] ] ] } },
{ "type": "Feature", "properties": { "grid_id": "G0201", "cell_area_m2": 42058.6 }, "geometry": { "type": "Polygon", "coordinates": [ [ [ 127.116153377316564, 37.474573758772436 ], [ 127.116136791265333, 37.477816592345896 ], [ 127.1163453, 37.477591200000013 ], [ 127.11674, 37.4771665 ], [ 127.1176594, 37.4760978 ], [ 127.118535841314568, 37.474581474341797 ], [ 127.116153377316564, 37.474573758772436 ] ] ] } },
{ "type": "Feature", "properties": { "grid_id": "G0202", "cell_area_m2": 29404.6 }, "geometry": { "type": "Polygon", "coordinates": [ [ [ 127.121831447114502, 37.46995404521261 ], [ 127.1226466, 37.4687997 ], [ 127.1230007, 37.4678076 ], [ 127.12281280000002, 37.4670123 ], [ 127.122495, 37.4664183 ], [ 127.121852847662041, 37.46570557619728 ], [ 127.121831447114502, 37.46995404521261 ] ] ] } }
]
}
